ONEWEB-0053             
1 45157U 20008AC  26173.31607199  .00000093  00000+0  22961-3 0  9991
2 45157  87.8821  35.2624 0002026  71.0607 289.0740 13.10482236308585
ONEWEB-0054             
1 45158U 20008AD  26173.35151276 -.00000236  00000+0 -71219-3 0  9997
2 45158  87.8841  35.2389 0001885  83.6665 276.4677 13.10339790308700
ONEWEB-0056             
1 45159U 20008AE  26173.55171153 -.00000228  00000+0 -68824-3 0  9995
2 45159  87.8830  35.1926 0002060  88.8063 271.3301 13.10456785308881
ONEWEB-0057             
1 45160U 20008AF  26173.56891282 -.00000606  00000+0 -17722-2 0  9990
2 45160  87.8831  35.2013 0002073  70.1680 289.9671 13.10389079309051
ONEWEB-0058             
1 45161U 20008AG  26173.32661648 -.00000402  00000+0 -11875-2 0  9993
2 45161  87.8822  35.2549 0001584  87.1018 273.0291 13.10371629309093
ONEWEB-0059             
1 45162U 20008AH  26173.55199055 -.00002137  00000+0 -61507-2 0  9991
2 45162  87.8822  35.2091 0001827  77.1021 283.0310 13.10460831309029
ONEWEB-0062             
1 45163U 20008AJ  26173.57538006 -.00000491  00000+0 -14435-2 0  9996
2 45163  87.8835  35.1926 0001651  96.0407 264.0909 13.10359999308892
ONEWEB-0065             
1 45164U 20008AK  26173.07468883  .00000697  00000+0  19633-2 0  9998
2 45164  87.8830  35.3001 0002021  78.4349 281.7005 13.10217664308520
ONEWEB-0066             
1 45424U 20020A   26173.48747320  .00000553  00000+0  15250-2 0  9994
2 45424  87.8884  20.0159 0001664  83.9235 276.2082 13.11416285303373
ONEWEB-0067             
1 45425U 20020B   26173.29642411 -.00000541  00000+0 -15614-2 0  9992
2 45425  87.8904  19.9767 0001917  81.8191 278.3154 13.11424460303409
ONEWEB-0080             
1 45426U 20020C   26173.29600788 -.00000698  00000+0 -20058-2 0  9995
2 45426  87.8896  20.0509 0001694  96.3301 263.8020 13.11416142303378
ONEWEB-0090             
1 45427U 20020D   26173.55373805  .00000394  00000+0  10762-2 0  9994
2 45427  87.8895  20.0039 0001797  88.5611 271.5723 13.11416850303379
ONEWEB-0061             
1 45428U 20020E   26173.50936492 -.00000162  00000+0 -49348-3 0  9995
2 45428  87.8889  19.9974 0001782  86.9452 273.1880 13.11414151303326
ONEWEB-0081             
1 45429U 20020F   26173.33827031  .00000513  00000+0  14130-2 0  9993
2 45429  87.8886  20.0416 0001774  80.5863 279.5465 13.11415418303411
ONEWEB-0069             
1 45430U 20020G   26173.56899310  .00000458  00000+0  12575-2 0  9998
2 45430  87.8889  19.9986 0001817  84.1642 275.9693 13.11414565303378
ONEWEB-0031             
1 45431U 20020H   26173.29925708 -.00000522  00000+0 -15098-2 0  9997
2 45431  87.8880  20.0571 0001764  92.8471 267.2859 13.11417608303324
ONEWEB-0027             
1 45432U 20020J   26173.50076550  .00000023  00000+0  25411-4 0  9990
2 45432  87.9135   4.8080 0002132 102.5285 257.6085 13.17651306307055
ONEWEB-0064             
1 45433U 20020K   26173.29756886 -.00000471  00000+0 -13649-2 0  9991
2 45433  87.8885  20.0493 0001856  92.3353 267.7988 13.11417235303357
ONEWEB-0018             
1 45434U 20020L   26173.55854461  .00000475  00000+0  13051-2 0  9998
2 45434  87.8887  19.9969 0001391  83.1566 276.9720 13.11419459303337
ONEWEB-0083             
1 45435U 20020M   26173.54865138  .00000228  00000+0  60620-3 0  9992
2 45435  87.8890  19.9927 0001771  88.4119 271.7212 13.11418366303379
ONEWEB-0095             
1 45436U 20020N   26173.54015471 -.00000521  00000+0 -15055-2 0  9999
2 45436  87.8891  20.0031 0002549  89.8037 270.3383 13.11419487303377
ONEWEB-0092             
1 45437U 20020P   26173.26534153 -.00000108  00000+0 -33984-3 0  9995
2 45437  87.8888  20.0490 0002161  84.1115 276.0259 13.11416620303458
ONEWEB-0085             
1 45438U 20020Q   26173.54837531  .00000242  00000+0  64648-3 0  9991
2 45438  87.8885  19.9992 0001835  87.2877 272.8461 13.11418100303371
ONEWEB-0096             
1 45439U 20020R   26173.55019048  .00000264  00000+0  70835-3 0  9997
2 45439  87.8893  19.9953 0001931  88.0731 272.0618 13.11416196303361
ONEWEB-0037             
1 45440U 20020S   26173.27638768 -.00000046  00000+0 -16377-3 0  9995
2 45440  87.8902  20.0228 0001894  86.3418 273.7927 13.11911562303361
ONEWEB-0042             
1 45441U 20020T   26173.53989406 -.00000161  00000+0 -49120-3 0  9993
2 45441  87.8891  19.9934 0001807  83.3924 276.7410 13.11418020303364
ONEWEB-0098             
1 45442U 20020U   26173.30689515 -.00000231  00000+0 -68768-3 0  9994
2 45442  87.8890  20.0492 0001763  88.8958 271.2372 13.11419025303312
ONEWEB-0055             
1 45443U 20020V   26173.28557366 -.00000386  00000+0 -11264-2 0  9999
2 45443  87.8887  20.0521 0001793  89.1480 270.9854 13.11415889303280
ONEWEB-0093             
1 45444U 20020W   26173.26550113  .00000389  00000+0  10627-2 0  9994
2 45444  87.8889  20.0492 0001802  73.4899 286.6427 13.11414360303341
ONEWEB-0029             
1 45445U 20020X   26173.52150038 -.00000489  00000+0 -14160-2 0  9995
2 45445  87.8880  20.0074 0001716  80.2104 279.9218 13.11415170303352
