OBJECT_NAME,OBJECT_ID,EPOCH,MEAN_MOTION,ECCENTRICITY,INCLINATION,RA_OF_ASC_NODE,ARG_OF_PERICENTER,MEAN_ANOMALY,EPHEMERIS_TYPE,CLASSIFICATION_TYPE,NORAD_CAT_ID,ELEMENT_SET_NO,REV_AT_EPOCH,BSTAR,MEAN_MOTION_DOT,MEAN_MOTION_DDOT
ONEWEB-0053,2020-008AC,2026-06-22T07:35:08.619936,13.10482236,.00020261,87.8821,35.2624,71.0607,289.0740,0,U,45157,999,30858,.2296108E-3,.93E-6,0
ONEWEB-0054,2020-008AD,2026-06-22T08:26:10.702464,13.10339790,.00018855,87.8841,35.2389,83.6665,276.4677,0,U,45158,999,30870,-.71219167E-3,-.236E-5,0
ONEWEB-0056,2020-008AE,2026-06-22T13:14:27.876192,13.10456785,.00020605,87.8830,35.1926,88.8063,271.3301,0,U,45159,999,30888,-.68823643E-3,-.228E-5,0
ONEWEB-0057,2020-008AF,2026-06-22T13:39:14.067648,13.10389079,.00020735,87.8831,35.2013,70.1680,289.9671,0,U,45160,999,30905,-.17722026E-2,-.606E-5,0
ONEWEB-0058,2020-008AG,2026-06-22T07:50:19.663872,13.10371629,.00015844,87.8822,35.2549,87.1018,273.0291,0,U,45161,999,30909,-.11874751E-2,-.402E-5,0
ONEWEB-0059,2020-008AH,2026-06-22T13:14:51.983520,13.10460831,.00018274,87.8822,35.2091,77.1021,283.0310,0,U,45162,999,30902,-.61506705E-2,-.2137E-4,0
ONEWEB-0062,2020-008AJ,2026-06-22T13:48:32.837184,13.10359999,.00016514,87.8835,35.1926,96.0407,264.0909,0,U,45163,999,30889,-.14435089E-2,-.491E-5,0
ONEWEB-0065,2020-008AK,2026-06-22T01:47:33.114912,13.10217664,.00020214,87.8830,35.3001,78.4349,281.7005,0,U,45164,999,30852,.19633294E-2,.697E-5,0
ONEWEB-0066,2020-020A,2026-06-22T11:41:57.684480,13.11416285,.00016644,87.8884,20.0159,83.9235,276.2082,0,U,45424,999,30337,.15250032E-2,.553E-5,0
ONEWEB-0067,2020-020B,2026-06-22T07:06:51.043104,13.11424460,.00019174,87.8904,19.9767,81.8191,278.3154,0,U,45425,999,30340,-.15613701E-2,-.541E-5,0
ONEWEB-0080,2020-020C,2026-06-22T07:06:15.080832,13.11416142,.00016947,87.8896,20.0509,96.3301,263.8020,0,U,45426,999,30337,-.20057942E-2,-.698E-5,0
ONEWEB-0090,2020-020D,2026-06-22T13:17:22.967520,13.11416850,.00017971,87.8895,20.0039,88.5611,271.5723,0,U,45427,999,30337,.10762318E-2,.394E-5,0
ONEWEB-0061,2020-020E,2026-06-22T12:13:29.129088,13.11414151,.00017821,87.8889,19.9974,86.9452,273.1880,0,U,45428,999,30332,-.49348159E-3,-.162E-5,0
ONEWEB-0081,2020-020F,2026-06-22T08:07:06.554784,13.11415418,.00017743,87.8886,20.0416,80.5863,279.5465,0,U,45429,999,30341,.14129757E-2,.513E-5,0
ONEWEB-0069,2020-020G,2026-06-22T13:39:21.003840,13.11414565,.00018175,87.8889,19.9986,84.1642,275.9693,0,U,45430,999,30337,.12575389E-2,.458E-5,0
ONEWEB-0031,2020-020H,2026-06-22T07:10:55.811712,13.11417608,.00017645,87.8880,20.0571,92.8471,267.2859,0,U,45431,999,30332,-.15097698E-2,-.522E-5,0
ONEWEB-0027,2020-020J,2026-06-22T12:01:06.139200,13.17651306,.00021323,87.9135,4.8080,102.5285,257.6085,0,U,45432,999,30705,.25411138E-4,.23E-6,0
ONEWEB-0064,2020-020K,2026-06-22T07:08:29.949504,13.11417235,.00018565,87.8885,20.0493,92.3353,267.7988,0,U,45433,999,30335,-.13649293E-2,-.471E-5,0
ONEWEB-0018,2020-020L,2026-06-22T13:24:18.254304,13.11419459,.00013914,87.8887,19.9969,83.1566,276.9720,0,U,45434,999,30333,.13051062E-2,.475E-5,0
ONEWEB-0083,2020-020M,2026-06-22T13:10:03.479232,13.11418366,.00017715,87.8890,19.9927,88.4119,271.7212,0,U,45435,999,30337,.60620239E-3,.228E-5,0
ONEWEB-0095,2020-020N,2026-06-22T12:57:49.366944,13.11419487,.00025497,87.8891,20.0031,89.8037,270.3383,0,U,45436,999,30337,-.15055132E-2,-.521E-5,0
ONEWEB-0092,2020-020P,2026-06-22T06:22:05.508192,13.11416620,.00021617,87.8888,20.0490,84.1115,276.0259,0,U,45437,999,30345,-.3398377E-3,-.108E-5,0
ONEWEB-0085,2020-020Q,2026-06-22T13:09:39.626784,13.11418100,.00018353,87.8885,19.9992,87.2877,272.8461,0,U,45438,999,30337,.64648215E-3,.242E-5,0
ONEWEB-0096,2020-020R,2026-06-22T13:12:16.457472,13.11416196,.00019313,87.8893,19.9953,88.0731,272.0618,0,U,45439,999,30336,.70834841E-3,.264E-5,0
ONEWEB-0037,2020-020S,2026-06-22T06:37:59.895552,13.11911562,.0001894,87.8902,20.0228,86.3418,273.7927,0,U,45440,999,30336,-.16376548E-3,-.46E-6,0
ONEWEB-0042,2020-020T,2026-06-22T12:57:26.846784,13.11418020,.0001807,87.8891,19.9934,83.3924,276.7410,0,U,45441,999,30336,-.49119548E-3,-.161E-5,0
ONEWEB-0098,2020-020U,2026-06-22T07:21:55.740960,13.11419025,.00017632,87.8890,20.0492,88.8958,271.2372,0,U,45442,999,30331,-.68768021E-3,-.231E-5,0
ONEWEB-0055,2020-020V,2026-06-22T06:51:13.564224,13.11415889,.00017938,87.8887,20.0521,89.1480,270.9854,0,U,45443,999,30328,-.11263763E-2,-.386E-5,0
ONEWEB-0093,2020-020W,2026-06-22T06:22:19.297632,13.11414360,.00018024,87.8889,20.0492,73.4899,286.6427,0,U,45444,999,30334,.10626964E-2,.389E-5,0
ONEWEB-0029,2020-020X,2026-06-22T12:30:57.632832,13.11415170,.0001716,87.8880,20.0074,80.2104,279.9218,0,U,45445,999,30335,-.14160114E-2,-.489E-5,0
